{"name": "Aldrich Mansion","street": "836 Warwick Neck Avenue","city": "Warwick","state": "RI","zip": "02889","phone": "401-739-6850","web": "www.aldrichmansion.com"  }
{"name": "Alpine Country Club","street": "251 Pippin Orchard Road","city": "Cranston","state": "RI","zip": "02921","phone": "401-943-2670","web": "www.alpinecountryclubri.com"  }
{"name": "Andrea Hotel","street": "89 Atlantic Avenue","city": "Westerly","state": "RI","zip": "02891","phone": "401-348-8788","web": "www.andreahotel.com"  }
{"name": "Astor's Beechwood Mansion","street": "580 Bellevue Ave.","city": "Newport","state": "RI","zip": "02840","phone": "401-846-3772","web": "www.astorsbeechwood.com"  }
{"name": "Atlantic Beach Club","street": "55 Purgatory Rd","city": "Middletown","state": "RI","zip": "02842","phone": "401-847-2750","web": "www.atlanticbeachclub.com"  }
{"name": "Belcourt Castle","street": "657 Bellevue Avenue","city": "Newport","state": "RI","zip": "02840","phone": "401-846-0669","web": "www.belcourtcastle.com"  }
{"name": "Belle Mer","street": "2 Goat Island","city": "Newport","state": "RI","zip": "02840","phone": "401-841-0330","web": "www.longwoodevents.com/Venues/BelleMer/Default.aspx"  }
{"name": "Biltmore Hotel","street": "11 Dorrance St.","city": "Providence","state": "RI","zip": "02903","phone": "401-421-0700","web": "http://www.providencebiltmore.com"  }
{"name": "Blithewold","street": "101 Ferry Rd.","city": "Bristol","state": "RI","zip": "02809","phone": "401-253-2707","web": "www.blithewold.org"  }
{"name": "Chester House","street": "112 Ashaway Rd.","city": "Westerly","state": "RI","zip": "02891","phone": "401-596-8222","web": "www.thechesterhouse.com"  }
{"name": "Federal Reserve","street": "60 Dorrance St.","city": "Providence","state": "RI","zip": "02903","phone": "401-737-3783","web": "http://www.federalreserveri.com"  }
{"name": "Glen Manor Estate","street": "3 Frank Coelho Dr.","city": "Portsmouth","state": "RI","zip": "02871","phone": "401-683-4177","web": "www.glenmanorhouse.com"  }
{"name": "Hotel Viking","street": "One Bellevue Avenue","city": "Newport","state": "RI","zip": "02840","phone": "401-847-3300","web": "www.hotelviking.com"  }
{"name": "Hyatt Regency Newport","street": "1 Goat Island","city": "Newport","state": "RI","zip": "02840","phone": "401-851-1234","web": "newport.hyatt.com"  }
{"name": "Kirkbrae Country Club","street": "197 Old River Rd.","city": "Lincoln","state": "RI","zip": "02865","phone": "401-333-1300","web": "http://www.kirkbrae.org"  }
{"name": "Marriott Newport","street": "25 Americas Cup Ave.","city": "Newport","state": "RI","zip": "02840","phone": "401-849-1000","web": "www.Marriott.com/PVDLW"  }
{"name": "Meadow Brook Inn","street": "168 Carolina Back Rd.","city": "Charlestown","state": "RI","zip": "02813","phone": "401-364-3669","web": "www.meadowbrookinnri.com"  }
{"name": "New York Yacht Club","street": "5 Halidon Ave.","city": "Newport","state": "RI","zip": "02840","phone": "401-846-1000","web": "www.nyyc.org"  }
{"name": "Newport Harbor Hotel","street": "49 Americas Cup Ave.","city": "Newport","state": "RI","zip": "02840","phone": "401-847-9000","web": "www.newporthotel.com"  }
{"name": "Oceancliff Resort","street": "65 Ridge Rd.","city": "Newport","state": "RI","zip": "02840","phone": "401- 846-6667","web": "www.oceancliff1and2.com"  }
{"name": "Pawtucket Country Club","street": "900 Armistice Blvd.","city": "Pawtucket","state": "RI","zip": "02861","phone": "401-725-2918","web": "www.pawtucketcountryclub.com"  }
{"name": "Point Pleasant Inn","street": "333 Poppasquash Road","city": "Bristol","state": "RI","zip": "02809","phone": "401-253-0627","web": "www.pointpleasantinn.com"  }
{"name": "Quidnessett Country Club","street": "950 North Quidnessett Rd.","city": "North Kingstown","state": "RI","zip": "02852","phone": "401-884-1100","web": "www.reachri.com/qcc/QuidnessettCountryClub.html"  }
{"name": "Regatta Club","street": "","city": "Newport","state": "RI","zip": "","phone": "","web": ""  }
{"name": "Rhodes On the Pawtuxet","street": "60 Rhodes Place","city": "Cranston","state": "RI","zip": "02905","phone": "401-785-4333","web": "www.rhodesonthepawtuxet.com"  }
{"name": "Roger Williams Park and Casino","street": "Elmwood Avenue","city": "Providence","state": "RI","zip": "","phone": "401-941-5640","web": "http://www.providenceri.com/vacation/CasinoInfoPacket.html"  }
{"name": "Rose Farm Inn","street": "1005 Roslyn Rd.","city": "Block Island","state": "RI","zip": "02807","phone": "401-466-2034","web": "www.rosefarminn.com"  }
{"name": "Rosecliff","street": "548 Bellevue Ave.","city": "Newport","state": "RI","zip": "02840","phone": "401-847-1000","web": "http://www.newportmansions.org/page3751.cfm"  }
{"name": "Easton's Beach Rotunda","street": "175 Memorial Blvd.","city": "Newport","state": "RI","zip": "02840","phone": "401-845-5489","web": ""  }
{"name": "Seaview Country Club","street": "150 Gray St.","city": "Warwick","state": "RI","zip": "02889","phone": "401-739-6311","web": ""  }
{"name": "Stone House Club","street": "122 Sakonnet Point Rd.","city": "Little Compton","state": "RI","zip": "","phone": "401-635-2222","web": "http://www.stonehouse1854.com"  }
{"name": "The 1661 Inn and Hotel Manisses","street": "PO Box I","city": "Block Island","state": "RI","zip": "02807","phone": "401-466-2421","web": "www.blockislandresorts.com"  }
{"name": "Warwick Country Club","street": "394 Narragansett Bay Ave.","city": "Warwick","state": "RI","zip": "02889","phone": "401-737-9248","web": "www.warwickcc.com"  }
{"name": "West Valley Inn","street": "4 Blossom St.","city": "West Warwick","state": "RI","zip": "02893","phone": "401-822-2834","web": "www.westvalleyinn.com"  }
{"name": "The Westin Providence","street": "1 Exchange St.","city": "Providence","state": "RI","zip": "02903","phone": "401-598-8000","web": "www.westin.com/providence"  }
{"name": "Linden Place","street": "500 Hope St.","city": "Bristol","state": "RI","zip": "02809","phone": "401-253-0390","web": "www.lindenplace.org"  }
{"name": "Squantum Association","street": "947 Veterans Memorial Parkway","city": "East Providence","state": "RI","zip": "02915","phone": "401-434-8377","web": "http://www.squantumassociation.com"  }
{"name": "Venus de Milo Restaurant","street": "75 Grand Army Highway","city": "Swansea","state": "MA","zip": "02777","phone": "508-678-3901","web": "http://www.venusdemilo.com"  }
{"name": "Salerno's","street": "196 Onset Ave.","city": "Onset","state": "MA","zip": "02558","phone": "508-291-6182","web": "http://www.salernosfunctions.com"  }
{"name": "Ledgemont Country Club","street": "131 Brown Ave.","city": "Seekonk","state": "MA","zip": "02771","phone": "508-761-6600","web": "http://www.ledgemontcc.com/"  }
{"name": "Roger Williams National Memorial Park","street": "282 North Main St.","city": "Providence","state": "RI","zip": "02903","phone": "401-521-7266","web": "http://www.nps.gov/rowi"  }
{"name": "Mount Hope Farm","street": "250 Metacom Ave.","city": "Bristol","state": "RI","zip": "02809","phone": "401-254-1745","web": "http://www.mounthopefarm.com/"  }
{"name": "Johnson and Wales Inn","street": "213 Taunton Ave.","city": "Seekonk","state": "MA","zip": "02771","phone": "800-232-1772","web": "http://www.jwinn.com/wed.htm"  }
{"name": "Independence Harbor","street": "10 Narrows Rd.","city": "Assonet","state": "MA","zip": "02702","phone": "800-287-8300","web": "http://www.ihweddings.com/?ref=barmannphotography.com"  }
{"name": "Rhode Island State House","street": "82 Smith St.","city": "Providence","state": "RI","zip": "02902","phone": "401-222-2357","web": "http://www.rilin.state.ri.us/statehousetour/"  }
{"name": "Five Bridge Inn","street": "154 Pine St.","city": "Rehoboth","state": "MA","zip": "02769","phone": "508-252-3190","web": "http://www.fivebridgeinn.com"  }
{"name": "Renaissance Providence Hotel","street": "5 Avenue of the Arts","city": "Providence","state": "RI","zip": "02903","phone": "401-276-0010","web": "http://www.marriott.com/hotels/event-planning/travel/pvdbr-renaissance-providence-downtown-hotel/"  }
{"name": "Aldrich House","street": "110 Benevolent St.","city": "Providence","state": "RI","zip": "02906","phone": "401-331-8575","web": "http://www.rihs.org/rentals_rentals.html"  }